[{"OBJECT_NAME":"STARLINK-36274","OBJECT_ID":"2026-054V","EPOCH":"2026-03-30T04:00:01.999584","MEAN_MOTION":15.75210513,"ECCENTRICITY":0.0001404,"INCLINATION":53.1594,"RA_OF_ASC_NODE":209.9251,"ARG_OF_PERICENTER":89.2735,"MEAN_ANOMALY":283.0688,"EPHEMERIS_TYPE":0,"CLASSIFICATION_TYPE":"U","NORAD_CAT_ID":68251,"ELEMENT_SET_NO":999,"REV_AT_EPOCH":324,"BSTAR":0.00021228,"MEAN_MOTION_DOT":0.00031984,"MEAN_MOTION_DDOT":0},{"OBJECT_NAME":"STARLINK-37085","OBJECT_ID":"2026-054W","EPOCH":"2026-03-30T03:50:45.632832","MEAN_MOTION":15.80903072,"ECCENTRICITY":8.52e-5,"INCLINATION":53.1594,"RA_OF_ASC_NODE":209.9074,"ARG_OF_PERICENTER":95.8191,"MEAN_ANOMALY":264.2929,"EPHEMERIS_TYPE":0,"CLASSIFICATION_TYPE":"U","NORAD_CAT_ID":68252,"ELEMENT_SET_NO":999,"REV_AT_EPOCH":201,"BSTAR":0.00077016,"MEAN_MOTION_DOT":0.00154264,"MEAN_MOTION_DDOT":0},{"OBJECT_NAME":"STARLINK-37086","OBJECT_ID":"2026-054X","EPOCH":"2026-03-30T03:49:40.632384","MEAN_MOTION":15.80985874,"ECCENTRICITY":0.0001567,"INCLINATION":53.1587,"RA_OF_ASC_NODE":209.9017,"ARG_OF_PERICENTER":140.6244,"MEAN_ANOMALY":219.4893,"EPHEMERIS_TYPE":0,"CLASSIFICATION_TYPE":"U","NORAD_CAT_ID":68253,"ELEMENT_SET_NO":999,"REV_AT_EPOCH":201,"BSTAR":0.0017311,"MEAN_MOTION_DOT":0.00357327,"MEAN_MOTION_DDOT":0},{"OBJECT_NAME":"STARLINK-37084","OBJECT_ID":"2026-054Y","EPOCH":"2026-03-30T04:00:01.999584","MEAN_MOTION":15.80814609,"ECCENTRICITY":7.57e-5,"INCLINATION":53.1591,"RA_OF_ASC_NODE":209.8489,"ARG_OF_PERICENTER":85.0145,"MEAN_ANOMALY":324.5763,"EPHEMERIS_TYPE":0,"CLASSIFICATION_TYPE":"U","NORAD_CAT_ID":68254,"ELEMENT_SET_NO":999,"REV_AT_EPOCH":320,"BSTAR":0.0004366,"MEAN_MOTION_DOT":0.00086102,"MEAN_MOTION_DDOT":0},{"OBJECT_NAME":"STARLINK-37075","OBJECT_ID":"2026-054Z","EPOCH":"2026-03-30T03:48:35.892864","MEAN_MOTION":15.80941343,"ECCENTRICITY":0.0001337,"INCLINATION":53.1593,"RA_OF_ASC_NODE":209.8979,"ARG_OF_PERICENTER":135.3612,"MEAN_ANOMALY":224.7519,"EPHEMERIS_TYPE":0,"CLASSIFICATION_TYPE":"U","NORAD_CAT_ID":68255,"ELEMENT_SET_NO":999,"REV_AT_EPOCH":201,"BSTAR":0.0011778,"MEAN_MOTION_DOT":0.00239052,"MEAN_MOTION_DDOT":0},{"OBJECT_NAME":"STARLINK-36333","OBJECT_ID":"2026-054AA","EPOCH":"2026-03-30T04:00:01.999584","MEAN_MOTION":15.80813678,"ECCENTRICITY":0.0001138,"INCLINATION":53.159,"RA_OF_ASC_NODE":209.84,"ARG_OF_PERICENTER":84.8513,"MEAN_ANOMALY":329.0127,"EPHEMERIS_TYPE":0,"CLASSIFICATION_TYPE":"U","NORAD_CAT_ID":68256,"ELEMENT_SET_NO":999,"REV_AT_EPOCH":324,"BSTAR":0.00046737,"MEAN_MOTION_DOT":0.00092281,"MEAN_MOTION_DDOT":0},{"OBJECT_NAME":"STARLINK-36745","OBJECT_ID":"2026-054AB","EPOCH":"2026-03-30T04:00:01.999584","MEAN_MOTION":15.78357775,"ECCENTRICITY":8.93e-5,"INCLINATION":53.1592,"RA_OF_ASC_NODE":209.8274,"ARG_OF_PERICENTER":80.2102,"MEAN_ANOMALY":339.4656,"EPHEMERIS_TYPE":0,"CLASSIFICATION_TYPE":"U","NORAD_CAT_ID":68257,"ELEMENT_SET_NO":999,"REV_AT_EPOCH":320,"BSTAR":-0.012404,"MEAN_MOTION_DOT":-0.01902547,"MEAN_MOTION_DDOT":0},{"OBJECT_NAME":"STARLINK-36890","OBJECT_ID":"2026-054AC","EPOCH":"2026-03-30T04:00:01.999584","MEAN_MOTION":15.80828912,"ECCENTRICITY":0.0001181,"INCLINATION":53.159,"RA_OF_ASC_NODE":209.8137,"ARG_OF_PERICENTER":126.3906,"MEAN_ANOMALY":300.2828,"EPHEMERIS_TYPE":0,"CLASSIFICATION_TYPE":"U","NORAD_CAT_ID":68258,"ELEMENT_SET_NO":999,"REV_AT_EPOCH":320,"BSTAR":0.00041287,"MEAN_MOTION_DOT":0.00081393,"MEAN_MOTION_DDOT":0},{"OBJECT_NAME":"STARLINK-36323","OBJECT_ID":"2026-054AD","EPOCH":"2026-03-30T04:00:01.999584","MEAN_MOTION":15.80837513,"ECCENTRICITY":9.77e-5,"INCLINATION":53.1591,"RA_OF_ASC_NODE":209.8311,"ARG_OF_PERICENTER":83.4063,"MEAN_ANOMALY":334.7153,"EPHEMERIS_TYPE":0,"CLASSIFICATION_TYPE":"U","NORAD_CAT_ID":68259,"ELEMENT_SET_NO":999,"REV_AT_EPOCH":324,"BSTAR":0.00035999,"MEAN_MOTION_DOT":0.00070819,"MEAN_MOTION_DDOT":0},{"OBJECT_NAME":"STARLINK-37056","OBJECT_ID":"2026-054AE","EPOCH":"2026-03-30T04:00:01.999584","MEAN_MOTION":15.80822004,"ECCENTRICITY":8.26e-5,"INCLINATION":53.1589,"RA_OF_ASC_NODE":209.8045,"ARG_OF_PERICENTER":99.2477,"MEAN_ANOMALY":331.6985,"EPHEMERIS_TYPE":0,"CLASSIFICATION_TYPE":"U","NORAD_CAT_ID":68260,"ELEMENT_SET_NO":999,"REV_AT_EPOCH":320,"BSTAR":0.00042889,"MEAN_MOTION_DOT":0.00084582,"MEAN_MOTION_DDOT":0},{"OBJECT_NAME":"TEN-KOH 2","OBJECT_ID":"2025-241B","EPOCH":"2026-03-30T02:20:03.111072","MEAN_MOTION":15.22777424,"ECCENTRICITY":0.0004469,"INCLINATION":51.6392,"RA_OF_ASC_NODE":335.8383,"ARG_OF_PERICENTER":230.2647,"MEAN_ANOMALY":129.7936,"EPHEMERIS_TYPE":0,"CLASSIFICATION_TYPE":"U","NORAD_CAT_ID":68261,"ELEMENT_SET_NO":999,"REV_AT_EPOCH":285,"BSTAR":0.00053304,"MEAN_MOTION_DOT":0.00012314,"MEAN_MOTION_DDOT":0},{"OBJECT_NAME":"STARLINK-37162","OBJECT_ID":"2026-055A","EPOCH":"2026-03-30T04:00:01.999584","MEAN_MOTION":15.92283181,"ECCENTRICITY":8.92e-5,"INCLINATION":53.1582,"RA_OF_ASC_NODE":234.8751,"ARG_OF_PERICENTER":66.407,"MEAN_ANOMALY":70.1584,"EPHEMERIS_TYPE":0,"CLASSIFICATION_TYPE":"U","NORAD_CAT_ID":68262,"ELEMENT_SET_NO":999,"REV_AT_EPOCH":292,"BSTAR":-0.003372,"MEAN_MOTION_DOT":-0.01162006,"MEAN_MOTION_DDOT":0.00040292},{"OBJECT_NAME":"STARLINK-37156","OBJECT_ID":"2026-055B","EPOCH":"2026-03-30T04:00:01.999584","MEAN_MOTION":15.92369822,"ECCENTRICITY":8.56e-5,"INCLINATION":53.158,"RA_OF_ASC_NODE":234.8695,"ARG_OF_PERICENTER":70.4807,"MEAN_ANOMALY":69.0008,"EPHEMERIS_TYPE":0,"CLASSIFICATION_TYPE":"U","NORAD_CAT_ID":68263,"ELEMENT_SET_NO":999,"REV_AT_EPOCH":292,"BSTAR":-0.0033335,"MEAN_MOTION_DOT":-0.01154035,"MEAN_MOTION_DDOT":0.00039825},{"OBJECT_NAME":"STARLINK-37163","OBJECT_ID":"2026-055C","EPOCH":"2026-03-30T04:00:01.999584","MEAN_MOTION":15.9254644,"ECCENTRICITY":9.13e-5,"INCLINATION":53.158,"RA_OF_ASC_NODE":234.8538,"ARG_OF_PERICENTER":70.2387,"MEAN_ANOMALY":76.4388,"EPHEMERIS_TYPE":0,"CLASSIFICATION_TYPE":"U","NORAD_CAT_ID":68264,"ELEMENT_SET_NO":999,"REV_AT_EPOCH":292,"BSTAR":-0.0033293,"MEAN_MOTION_DOT":-0.01163152,"MEAN_MOTION_DDOT":0.00040468},{"OBJECT_NAME":"STARLINK-37133","OBJECT_ID":"2026-055D","EPOCH":"2026-03-30T04:00:01.999584","MEAN_MOTION":15.92456162,"ECCENTRICITY":9.74e-5,"INCLINATION":53.158,"RA_OF_ASC_NODE":234.8616,"ARG_OF_PERICENTER":71.2343,"MEAN_ANOMALY":71.9213,"EPHEMERIS_TYPE":0,"CLASSIFICATION_TYPE":"U","NORAD_CAT_ID":68265,"ELEMENT_SET_NO":999,"REV_AT_EPOCH":292,"BSTAR":-0.0033312,"MEAN_MOTION_DOT":-0.01158403,"MEAN_MOTION_DDOT":0.00040133},{"OBJECT_NAME":"STARLINK-37042","OBJECT_ID":"2026-055E","EPOCH":"2026-03-30T04:00:01.999584","MEAN_MOTION":15.92630194,"ECCENTRICITY":0.0001019,"INCLINATION":53.1579,"RA_OF_ASC_NODE":234.8451,"ARG_OF_PERICENTER":63.1149,"MEAN_ANOMALY":87.9986,"EPHEMERIS_TYPE":0,"CLASSIFICATION_TYPE":"U","NORAD_CAT_ID":68266,"ELEMENT_SET_NO":999,"REV_AT_EPOCH":292,"BSTAR":-0.003344,"MEAN_MOTION_DOT":-0.01173314,"MEAN_MOTION_DDOT":0.00041147}]
